ONEWEB-0136             
1 47282U 20100AA  25197.59554347  .00000349  00000+0  93577-3 0  9991
2 47282  87.8859  57.3709 0002098  72.9206 287.2152 13.12444530220644
ONEWEB-0137             
1 47283U 20100AB  25197.85831429 -.00000244  00000+0 -71450-3 0  9992
2 47283  87.8860  57.3253 0001595  81.0126 279.1183 13.12440913220582
ONEWEB-0138             
1 47284U 20100AC  25197.60852140  .00000351  00000+0  94054-3 0  9991
2 47284  87.8853  57.3862 0001839  79.7860 280.3476 13.12443376220632
ONEWEB-0139             
1 47285U 20100AD  25197.87629406 -.00000455  00000+0 -13002-2 0  9998
2 47285  87.8858  57.3254 0001786  82.5604 277.5728 13.12443493220742
ONEWEB-0140             
1 47286U 20100AE  25197.60203237  .00000422  00000+0  11364-2 0  9991
2 47286  87.8853  57.3646 0001849  79.7837 280.3500 13.12443674220672
ONEWEB-0141             
1 47287U 20100AF  25197.87601739 -.00000458  00000+0 -13088-2 0  9996
2 47287  87.8853  57.3275 0001431  80.5389 279.5902 13.12443835220697
ONEWEB-0142             
1 47288U 20100AG  25197.86494023 -.00000352  00000+0 -10126-2 0  9995
2 47288  87.8874  57.3368 0001610  74.5133 285.6174 13.12443744220680
ONEWEB-0143             
1 47289U 20100AH  25197.87453022 -.00000342  00000+0 -98480-3 0  9990
2 47289  87.8862  57.3336 0001794  83.7443 276.3890 13.12441673220661
